# From MPC 34331
1999 CZ131,e,2.3707,151.7989,359.8778,44.41005,0.0033303,0.03247897,359.9994,02/11.0/1999,2000,H 8.1,0.15
# From MPC 34606
1999 CA132,e,12.0711,154.8710,0.5298,43.96574,0.0033809,0.09793640,0.0669,03/03.0/1999,2000,H 7.4,0.15
# From MPO357106
1999 CQ133,e,13.3027,123.3479,137.4084,41.24808,0.0037205,0.09891057,256.6747,04/27.0/2019,2000,H 7.0,0.15
# From MPC 34331
1999 CR133,e,1.7267,135.1296,347.9866,42.24989,0.0035889,0.00000000,0.0000,02/11.0/1999,2000,H 8.1,0.15
# From MPO357106
1999 CM153,e,0.1979,90.7704,4.4265,45.70819,0.0031894,0.13666381,64.6811,04/27.0/2019,2000,H 7.4,0.15
# From MPC 34607
1999 CN153,e,7.4797,153.0497,179.4175,42.59212,0.0035458,0.01599163,180.0562,03/03.0/1999,2000,H 7.7,0.15
# From MPC 40073
1999 CP153,e,3.0394,122.8538,244.8754,44.94090,0.0032715,0.15929056,126.7737,04/27.0/2019,2000,H 7.7,0.15
# From MPO424536
1999 CQ153,e,0.1424,192.2676,9.7230,46.48194,0.0031101,0.06519791,343.3835,04/27.0/2019,2000,H 8.0,0.15
# From MPC 34332
1999 CR153,e,1.4424,324.4932,201.2663,43.11892,0.0034810,0.05131850,359.9989,02/11.0/1999,2000,H 8.2,0.15
# From MPC 40073
1999 CS153,e,0.9885,343.2950,225.5192,44.43553,0.0033274,0.12382492,314.7772,04/27.0/2019,2000,H 8.1,0.15
# From MPC 34332
1999 CT153,e,4.5077,163.1393,357.6580,45.11051,0.0032530,0.09244492,359.9990,02/11.0/1999,2000,H 8.1,0.15
# From MPO273863
1999 CU153,e,2.6981,139.2802,295.4503,44.12155,0.0033630,0.06204738,74.7874,04/27.0/2019,2000,H 7.2,0.15
# From MPO357106
1999 CG154,e,0.7757,100.4959,171.2750,43.00944,0.0034943,0.09551922,249.8171,04/27.0/2019,2000,H 7.4,0.15
# From MPO335155
1999 CH154,e,0.8340,164.9186,231.2325,42.97440,0.0034986,0.00952421,119.6524,04/27.0/2019,2000,H 7.8,0.15
# From MPO273863
1999 CK158,e,17.1166,127.7918,313.5212,40.77615,0.0037853,0.06970199,68.7559,04/27.0/2019,2000,H 8.3,0.15
# From MPO419336
1999 CM158,e,9.2928,339.0326,165.4706,39.61353,0.0039531,0.27948556,38.6318,04/27.0/2019,2000,H 7.7,0.15
# From MPO339366
1999 DA,e,2.7902,54.0709,251.1909,43.27439,0.0034622,0.07340505,222.6093,04/27.0/2019,2000,H 7.9,0.15
# From MPC 34608
1999 DZ7,e,14.3355,330.7070,348.3845,39.41202,0.0039835,0.26732501,180.6875,02/11.0/1999,2000,H 8.8,0.15
# From MPC 34608
1999 DA8,e,40.0098,136.9891,338.3134,39.31630,0.0039980,0.32850900,12.4917,02/11.0/1999,2000,H12.4,0.15
# From MPC 35085
1999 DB8,e,22.2808,133.7632,6.7709,42.51073,0.0035560,0.10162263,0.0532,03/03.0/1999,2000,H10.0,0.15
# From MPC 35085
1999 DC8,e,4.7646,108.6829,31.3633,45.88385,0.0031711,0.00000000,0.0000,02/11.0/1999,2000,H10.0,0.15
# From MPC 35085
1999 DD8,e,5.4918,346.5429,59.7647,39.40474,0.0039846,0.23047409,67.0576,02/11.0/1999,2000,H11.1,0.15
# From MPC 35085
1999 DE8,e,3.5281,95.7469,44.1828,45.60443,0.0032003,0.00000000,0.0000,02/11.0/1999,2000,H 9.6,0.15
# From MPC 35085
1999 DF8,e,2.5261,31.4374,108.4564,44.16231,0.0033584,0.00000000,0.0000,02/11.0/1999,2000,H 9.9,0.15
# From MPC 35444
1999 DG8,e,39.9967,322.9589,72.7471,82.21519,0.0013221,0.59847177,33.5512,02/11.0/1999,2000,H 8.1,0.15
# From MPO 11525
1999 DH8,e,4.5314,105.2042,103.0279,44.14062,0.0033608,0.07637528,324.4294,04/27.0/2019,2000,H 8.7,0.15
# From MPC 38799
1999 DL8,e,5.7641,114.4809,25.9397,42.51721,0.0035551,0.00000000,0.0000,03/03.0/1999,2000,H 9.6,0.15
# From MPC 38799
1999 DM8,e,3.9009,99.2571,40.8791,42.88231,0.0035098,0.00000000,0.0000,02/11.0/1999,2000,H 9.7,0.15
# From MPC 38799
1999 DN8,e,2.9062,78.4277,61.6783,44.33840,0.0033384,0.00000000,0.0000,02/11.0/1999,2000,H 9.8,0.15
# From MPC 38800
1999 DO8,e,3.4294,10.0915,129.9521,41.79149,0.0036481,0.00000000,0.0000,02/11.0/1999,2000,H10.0,0.15
# From MPC 38800
1999 DP8,e,38.4068,136.9220,283.4507,115.7545,0.0007914,0.69987678,13.8898,02/11.0/1999,2000,H 8.9,0.15
# From MPC 38800
1999 DQ8,e,14.1864,130.3166,10.2323,45.31816,0.0032307,0.00000000,0.0000,02/11.0/1999,2000,H 9.1,0.15
# From MPC 38800
1999 DR8,e,8.1834,339.0262,340.8347,45.52041,0.0032092,0.11254264,180.1762,02/11.0/1999,2000,H 9.3,0.15
# From MPO446887
1999 GS46,e,5.1770,24.3405,100.4230,44.84886,0.0032815,0.08136759,95.5852,04/27.0/2019,2000,H 6.9,0.15
# From MPO361092
1999 HS11,e,2.5986,105.7127,160.1192,44.42175,0.0033290,0.02569871,325.5064,04/27.0/2019,2000,H 6.9,0.15
# From MPO361092
1999 HV11,e,3.1555,160.8611,281.5350,43.21405,0.0034695,0.01961104,145.8954,04/27.0/2019,2000,H 7.8,0.15
# From MPC 35098
1999 HY11,e,6.1858,35.8580,151.9364,42.15813,0.0036007,0.05979791,359.9823,04/12.0/1999,2000,H 8.3,0.15
# From MPC 35098
1999 HZ11,e,10.0570,170.0576,20.0111,42.38198,0.0035722,0.07869383,359.9821,04/12.0/1999,2000,H 8.4,0.15
# From MPC 35450
1999 HA12,e,3.5646,107.1032,96.0209,43.13976,0.0034785,0.05954420,0.0523,05/02.0/1999,2000,H 7.8,0.15
# From MPO261750
1999 HD12,e,10.1208,177.6333,289.4322,21.55302,0.0098501,0.58197924,95.5631,04/27.0/2019,2000,H12.8,0.15
# From MPO339366
1999 HG12,e,1.0209,30.6608,266.2497,43.96764,0.0033807,0.16026584,310.2497,04/27.0/2019,2000,H 7.2,0.15
# From MPO419336
1999 HH12,e,1.2931,255.9489,59.1775,43.85370,0.0033939,0.02140798,277.2947,04/27.0/2019,2000,H 7.0,0.15
# From MPO339366
1999 HJ12,e,4.5389,122.5945,213.3721,43.39409,0.0034479,0.04925657,274.0028,04/27.0/2019,2000,H 7.4,0.15
# From MPC 35120
1999 JV127,e,25.5113,3.0913,0.0946,16.72383,0.0144112,0.35905956,179.4220,05/02.0/1999,2000,H10.4,0.15
# From MPO361092
1999 JA132,e,6.9940,0.8631,181.5982,44.57942,0.0033113,0.00100410,359.9338,04/12.0/1999,2000,H 7.7,0.15
# From MPC 35470
1999 JB132,e,13.0667,211.9262,95.4827,39.53668,0.0039646,0.27490171,296.4221,05/02.0/1999,2000,H 8.2,0.15
# From MPC 35470
1999 JC132,e,5.7250,35.8398,280.2324,39.53065,0.0039655,0.24357784,284.6808,05/02.0/1999,2000,H 8.7,0.15
# From MPO446887
1999 JD132,e,10.4701,30.9142,108.1266,43.57948,0.0034259,0.06407467,91.4270,04/27.0/2019,2000,H 7.7,0.15
# From MPC 35470
1999 JE132,e,25.0290,213.1856,269.5183,39.44044,0.0039792,0.19470020,67.8546,05/02.0/1999,2000,H 8.6,0.15
# From MPC 35470
1999 JF132,e,1.8938,29.9718,182.7971,44.46353,0.0033243,0.00000000,0.0000,05/02.0/1999,2000,H 7.9,0.15
# From MPC 35737
1999 JH132,e,0.7252,206.9903,5.3005,42.00782,0.0036200,0.00000000,0.0000,05/02.0/1999,2000,H 9.6,0.15
# From MPC 35737
1999 JJ132,e,3.3656,210.4881,182.1040,45.79372,0.0031805,0.10180574,179.9161,05/02.0/1999,2000,H 8.8,0.15
# From MPC 35737
1999 JK132,e,16.0185,32.6302,84.0779,39.33989,0.0039944,0.16556465,77.1411,05/02.0/1999,2000,H 9.2,0.15
# From MPC 35737
1999 KT16,e,8.6985,213.9421,358.3379,46.41667,0.0031167,0.00000000,0.0000,05/02.0/1999,2000,H 8.8,0.15
# From MPC 35737
1999 KK17,e,3.9733,210.4825,2.1070,45.54298,0.0032068,0.00000000,0.0000,05/02.0/1999,2000,H 8.8,0.15
# From MPC 36543
1999 KL17,e,2.8797,307.2351,180.3058,46.23779,0.0031348,0.02942385,180.0847,06/11.0/1999,2000,H 8.7,0.15
# From MPO 19442
1999 KR18,e,0.5987,283.3943,213.9505,43.75304,0.0034056,0.20373159,191.0710,04/27.0/2019,2000,H 7.9,0.15
# From MPO456491
1999 LE31,e,151.8131,292.1235,32.3183,8.126527,0.0425448,0.46599518,316.7729,04/27.0/2019,2000,H12.5,0.15
# From MPO 73948
1999 LB37,e,14.8750,119.7746,218.6723,39.49911,0.0039703,0.19269398,291.5880,05/22.0/1999,2000,H 9.6,0.15
# From MPO368997
1999 OZ3,e,2.5542,137.7653,275.0294,44.08746,0.0033669,0.07860823,296.9888,04/27.0/2019,2000,H 7.4,0.15
# From MPO157338
1999 OA4,e,3.1235,136.9461,62.0329,44.53166,0.0033167,0.06655881,134.5668,04/27.0/2019,2000,H 7.9,0.15
# From MPO 16040
1999 OC4,e,1.1689,55.6067,203.9346,45.67384,0.0031930,0.17327479,63.6960,04/27.0/2019,2000,H 8.3,0.15
# From MPO285651
1999 OD4,e,14.3595,301.4198,145.8137,41.56904,0.0036775,0.09021742,250.0271,04/27.0/2019,2000,H 7.3,0.15
# From MPO 16040
1999 OG4,e,1.4211,111.3351,104.2285,47.19540,0.0030399,0.13456519,104.8453,04/27.0/2019,2000,H 7.7,0.15
# From MPO157338
1999 OH4,e,28.1242,124.1134,162.4762,40.61013,0.0038085,0.04331349,42.7727,04/27.0/2019,2000,H 8.3,0.15
# From MPO206040
1999 OJ4,e,3.9954,127.4454,285.5908,38.10851,0.0041896,0.02376166,294.7086,04/27.0/2019,2000,H 7.1,0.15
# From MPO 50413
1999 OK4,e,29.9148,122.3178,67.5140,43.43117,0.0034435,0.15726579,120.8910,04/27.0/2019,2000,H 7.6,0.15
# From MPC 37301
1999 RS214,e,3.1744,139.4957,178.8182,42.96436,0.0034998,0.00000000,0.0000,09/19.0/1999,2000,H 7.9,0.15
# From MPO157339
1999 RT214,e,2.5765,138.0538,205.0738,42.63793,0.0035401,0.04874471,2.7852,04/27.0/2019,2000,H 7.8,0.15
# From MPO230178
1999 RU214,e,4.2561,137.8298,108.3628,56.03667,0.0023496,0.34467001,56.2375,04/27.0/2019,2000,H 7.3,0.15
# From MPO363031
1999 RV214,e,1.1141,144.7575,324.6314,46.50293,0.0031080,0.04755781,238.4599,04/27.0/2019,2000,H 7.9,0.15
# From MPO361092
1999 RW214,e,1.3572,0.2433,268.2967,42.82076,0.0035174,0.03606907,113.8801,04/27.0/2019,2000,H 7.3,0.15
# From MPO368997
1999 RX214,e,4.8164,3.7645,265.5299,46.05114,0.0031539,0.17538610,98.8009,04/27.0/2019,2000,H 6.8,0.15
# From MPO157339
1999 RY214,e,13.6865,327.2359,70.0089,44.93905,0.0032717,0.17524591,4.0757,04/27.0/2019,2000,H 7.4,0.15
# From MPO357106
1999 RZ214,e,20.5377,214.5027,113.9226,84.73099,0.0012637,0.56855286,18.6290,04/27.0/2019,2000,H 7.8,0.15
# From MPO230178
1999 RB215,e,7.8576,4.9880,347.1091,47.41323,0.0030189,0.33965603,28.3927,04/27.0/2019,2000,H 9.4,0.15
# From MPO285651
1999 RC215,e,1.4118,189.1236,257.0328,43.92849,0.0033852,0.05430870,311.3048,04/27.0/2019,2000,H 6.9,0.15
# From MPC 38082
1999 RF215,e,3.6750,327.5791,0.1957,43.96413,0.0033811,0.00000000,0.0000,10/09.0/1999,2000,H 7.4,0.15
# From MPO419336
1999 RG215,e,0.2402,291.1367,112.7441,46.43846,0.0031145,0.06941493,322.8781,04/27.0/2019,2000,H 7.4,0.15
# From MPO230178
1999 RJ215,e,19.7010,314.8083,43.3022,59.16447,0.0021658,0.41463564,9.8578,04/27.0/2019,2000,H 7.4,0.15
# From MPO357106
1999 RK215,e,11.4569,137.4216,95.4461,39.30615,0.0039996,0.14182839,151.9446,04/27.0/2019,2000,H 7.6,0.15
# From MPO 68550
1999 RR215,e,1.1872,186.0413,145.4530,43.96267,0.0033813,0.10158182,57.3578,04/27.0/2019,2000,H 8.1,0.15
# From MPC 38805
